SES-4                   
1 38087U 12007A   17094.16011193 -.00000197  00000-0  00000-0 0  9997
2 38087   0.0045 236.8257 0002264 129.7420 221.7016  1.00269173 18781
BEIDOU G5               
1 38091U 12008A   17094.85170906  .00000028  00000-0  00000-0 0  9999
2 38091   2.0946  55.1194 0003012 236.3219 267.1645  1.00272185 18782
INTELSAT 22 (IS-22)     
1 38098U 12011A   17094.26428959 -.00000088  00000-0  00000-0 0  9996
2 38098   0.0146  67.6532 0002049 320.4284 331.9150  1.00271909 18143
APSTAR 7                
1 38107U 12013A   17094.89338971 -.00000132  00000-0  00000-0 0  9992
2 38107   0.0296 132.9559 0002454 239.9198 218.6303  1.00271987 18476
YAHSAT 1B               
1 38245U 12016A   17094.33213340  .00000097  00000-0  00000-0 0  9998
2 38245   0.0179 211.9252 0001867 153.0488 355.0134  1.00273462 18223
JCSAT-13                
1 38331U 12023A   17094.12053221 -.00000385  00000-0  00000-0 0  9990
2 38331   0.0166 158.0963 0002718 239.9280 321.9807  1.00271441 17835
VINASAT-2               
1 38332U 12023B   17094.81299429 -.00000359  00000-0  00000-0 0  9990
2 38332   0.0185 143.2769 0002547 247.6992 226.8395  1.00271283 12961
NIMIQ 6                 
1 38342U 12026A   17093.71909609 -.00000201  00000-0  00000-0 0  9996
2 38342   0.0419  81.9905 0002515 284.8980 353.1016  1.00272436 16731
CHINASAT 2A (ZX 2A)     
1 38352U 12028A   17094.85278390 -.00000323  00000-0  00000-0 0  9996
2 38352   0.0411  98.8352 0004897 248.7004 251.0694  1.00272601 17685
INTELSAT 19 (IS-19)     
1 38356U 12030A   17094.00414562 -.00000085  00000-0  00000-0 0  9998
2 38356   0.0162  83.4088 0003227 302.6290 333.9644  1.00272322 16775
ECHOSTAR 17             
1 38551U 12035A   17093.76342173 -.00000103  00000-0  00000-0 0  9991
2 38551   0.0221 202.5211 0001952 169.4274 348.0561  1.00269348 17426
METEOSAT-10 (MSG-3)     
1 38552U 12035B   17094.46506618 -.00000036  00000-0  00000-0 0  9991
2 38552   0.7652  49.8871 0000445 236.2642  73.8294  1.00273518 17198
SES-5                   
1 38652U 12036A   17094.76368670  .00000004  00000-0  00000-0 0  9994
2 38652   0.0335 258.5717 0002500  94.6550 119.9277  1.00271181 10815
TIANLIAN 1-03           
1 38730U 12040A   17094.43459069  .00000043  00000-0  00000-0 0  9996
2 38730   0.0648 256.6510 0002061 139.6069 323.7413  1.00269401 15012
INTELSAT 20 (IS-20)     
1 38740U 12043A   17093.27683879 -.00000052  00000-0  00000-0 0  9990
2 38740   0.0300 171.5229 0000221  56.7186 131.7566  1.00271163 17123
HYLAS 2                 
1 38741U 12043B   17094.37800817  .00000125  00000-0  00000-0 0  9996
2 38741   0.0294  98.8034 0001891 265.8689 355.3148  1.00274686 17073
INTELSAT 21 (IS-21)     
1 38749U 12045A   17093.62736576 -.00000312  00000-0  00000-0 0  9992
2 38749   0.0237 113.0327 0002160 250.9231 356.0327  1.00273083 16932
ASTRA 2F                
1 38778U 12051A   17093.38852228  .00000123  00000-0  00000-0 0  9996
2 38778   0.0589 231.7975 0002135  50.9556  77.2105  1.00269193 16585
GSAT-10                 
1 38779U 12051B   17094.23407472 -.00000194  00000-0  00000-0 0  9998
2 38779   0.0394 110.4374 0002013 284.5743 324.9871  1.00272421 16427
INTELSAT 23 (IS-23)     
1 38867U 12057A   17094.61078177 -.00000314  00000-0  00000-0 0  9994
2 38867   0.0272 254.3251 0001921  97.9220   7.7350  1.00274023 16300
BEIDOU G6               
1 38953U 12059A   17094.86888381 -.00000203  00000-0  10000-3 0  9996
2 38953   1.5040  79.9036 0003734 187.0871 323.1412  1.00269415 16352
LUCH 5B                 
1 38977U 12061A   17094.76959153 -.00000157  00000-0  00000-0 0  9994
2 38977   3.3961  75.0385 0003545 275.4925 103.4907  1.00271403 16488
YAMAL 300K              
1 38978U 12061B   17094.63840622  .00000042  00000-0  00000-0 0  9993
2 38978   0.0385  85.0571 0001196  13.2126 147.6237  1.00273214 15939
STAR ONE C3             
1 38991U 12062A   17094.53868750 -.00000278  00000-0  00000-0 0  9992
2 38991   0.0113 132.6306 0002358 220.5183 318.8024  1.00271782 16075
EUTELSAT 21B            
1 38992U 12062B   17094.40422188  .00000101  00000-0  00000-0 0  9994
2 38992   0.0671   7.8482 0002207  21.3144 330.8350  1.00271390 16161
ECHOSTAR 16             
1 39008U 12065A   17094.63436175 -.00000311  00000-0  00000-0 0  9996
2 39008   0.0181 200.8560 0002149 173.8800 345.2553  1.00272988 15927
CHINASAT 12 (ZX 12)     
1 39017U 12067A   17094.83799708 -.00000237  00000-0  00000-0 0  9991
2 39017   0.0150 165.6362 0003059 201.8429 215.0324  1.00270418 15815
EUTELSAT 70B            
1 39020U 12069A   17094.26882114 -.00000072  00000-0  00000-0 0  9995
2 39020   0.0638  16.0794 0001576   3.7763 340.1360  1.00272213 15815
YAMAL 402               
1 39022U 12070A   17094.12635314  .00000057  00000-0  10000-3 0  9998
2 39022   0.0176 164.3687 0002511 211.1185 277.5058  1.00272100 15895
SKYNET 5D               
1 39034U 12075A   17094.83313332  .00000070  00000-0  00000-0 0  9998
2 39034   0.0699   9.0301 0003904   3.1695 173.7767  1.00271010 15475
MEXSAT 3                
1 39035U 12075B   17093.78475277 -.00000053  00000-0  00000-0 0  9991
2 39035   0.0344 135.2341 0001737 233.0727 351.6826  1.00272234 15473
TDRS 11                 
1 39070U 13004A   17093.85379104  .00000063  00000-0  00000-0 0  9993
2 39070   5.4912 328.7285 0010219 301.3844  58.3659  1.00273404 12991
AMAZONAS 3              
1 39078U 13006A   17093.63561869 -.00000310  00000-0  00000-0 0  9996
2 39078   0.0241 204.3760 0001496 133.5896  22.0148  1.00272788 11186
AZERSPACE 1             
1 39079U 13006B   17094.33661697  .00000104  00000-0  00000-0 0  9995
2 39079   0.0147 123.3636 0001884 254.2041 342.4243  1.00270762 15110
EUTELSAT 117 WEST A     
1 39122U 13012A   17093.79029150 -.00000040  00000-0  00000-0 0  9992
2 39122   0.0309  90.2809 0002660 288.5979 341.1175  1.00271508 14754
ANIK G1                 
1 39127U 13014A   17093.76392172 -.00000101  00000-0  00000-0 0  9991
2 39127   0.0207 190.5688 0002273 139.7107  29.7076  1.00270350 14556
CHINASAT 11 (ZX 11)     
1 39157U 13020A   17094.50521067 -.00000320  00000-0  00000-0 0  9994
2 39157   0.0098 201.4554 0002722 102.5846 168.8243  1.00269710 14456
EUTELSAT 7B             
1 39163U 13022A   17094.44466316  .00000018  00000-0  00000-0 0  9994
2 39163   0.0236  36.1887 0005676 331.1071 352.7124  1.00270247 14303
SES-6                   
1 39172U 13026A   17094.55829403 -.00000290  00000-0  00000-0 0  9993
2 39172   0.0496  52.3348 0002025 320.7388 340.4609  1.00272289 14033
IRNSS-1A                
1 39199U 13034A   17094.63336331  .00000092  00000-0  00000-0 0  9992
2 39199  28.6984 116.3031 0020823 188.5578 171.4775  1.00278192 13671
ALPHASAT                
1 39215U 13038A   17094.47801331  .00000110  00000-0  00000-0 0  9995
2 39215   1.6363  29.8496 0002353 335.4506  24.5909  1.00274050 10355
INSAT-3D                
1 39216U 13038B   17094.23650296 -.00000185  00000-0  00000-0 0  9995
2 39216   0.0846  97.4911 0001509 248.9272  13.5634  1.00271470 13414
EUTELSAT 25B            
1 39233U 13044A   17093.39607495  .00000116  00000-0  00000-0 0  9993
2 39233   0.0512   6.3415 0001987 356.4731 357.1738  1.00274285 12931
GSAT-7                  
1 39234U 13044B   17094.25897323 -.00000106  00000-0  00000-0 0  9991
2 39234   0.0624 104.8277 0003308 203.1026  52.0256  1.00271932 11661
AMOS-4                  
1 39237U 13045A   17094.28393705 -.00000022  00000-0  00000-0 0  9990
2 39237   0.0202 220.2213 0002054 133.7874   5.9744  1.00271615 13260
ASTRA 2E                
1 39285U 13056A   17093.38775409  .00000123  00000-0  00000-0 0  9991
2 39285   0.0724  43.0225 0002320 332.1992 344.7726  1.00274204 12763
SIRIUS FM-6             
1 39360U 13058A   17093.78844292 -.00000044  00000-0  00000-0 0  9991
2 39360   0.0179 117.9913 0000684  68.6142 173.3800  1.00270778 12643
RADUGA-1M 3             
1 39375U 13062A   17094.75519397 -.00000068  00000-0  00000-0 0  9991
2 39375   0.0100 203.8107 0001845 187.2543 144.0464  1.00271534 12435
SES-8                   
1 39460U 13071A   17094.20082364 -.00000298  00000-0  00000-0 0  9990
2 39460   0.0348 265.1435 0002340 129.3011 325.5562  1.00268362 10828
INMARSAT 5-F1           
1 39476U 13073A   17094.69285685 -.00000002  00000-0  00000-0 0  9996
2 39476   0.0204 183.0900 0000505  90.2707 231.8543  1.00270576 12235
TKSAT-1 (TUPAC KATARI)  
1 39481U 13075A   17094.44354726 -.00000224  00000-0  00000-0 0  9996
2 39481   0.0530  55.3329 0002836 294.5553 275.5277  1.00272138 11892
EXPRESS-AM5             
1 39487U 13077A   17094.87673470 -.00000310  00000-0  00000-0 0  9997
2 39487   0.0325 308.9333 0000813  48.2231 291.8531  1.00271069 12675
GSAT-14                 
1 39498U 14001A   17094.25916685 -.00000106  00000-0  00000-0 0  9990
2 39498   0.0267 221.5271 0004016 179.1686 319.3198  1.00271752 11752
THAICOM 6               
1 39500U 14002A   17094.83799708 -.00000151  00000-0  00000-0 0  9994
2 39500   0.0576 127.2773 0001871 290.2471 155.9613  1.00273197 11752
TDRS 12                 
1 39504U 14004A   17094.51169573 -.00000302  00000-0  00000-0 0  9994
2 39504   6.0567 336.1781 0003353  36.0529 323.8491  1.00265008 10581
ABS-2                   
1 39508U 14006A   17094.25644074 -.00000115  00000-0  00000-0 0  9997
2 39508   0.0396  60.5454 0003364 314.4078 345.0423  1.00272174 11627
ATHENA-FIDUS            
1 39509U 14006B   17094.35930600  .00000125  00000-0  00000-0 0  9992
2 39509   0.0170 222.7384 0001553 160.2663 337.0022  1.00271114 11389
TURKSAT 4A              
1 39522U 14007A   17094.34759267  .00000117  00000-0  00000-0 0  9996
2 39522   0.0535 271.2522 0003360  55.2857  33.4263  1.00272947 11512
EXPRESS-AT1             
1 39612U 14010A   17094.69285685  .00000048  00000-0  00000-0 0  9999
2 39612   0.0289 310.5066 0000232 131.2469  56.8574  1.00273128 11355
